{"type": "FeatureCollection", "features": [ {"type": "Feature", "properties": {"norad_id": 37867, "name": "COSMOS 2476 (744)", "group": "gnss", "lat": -46.81944005020923, "lon": -71.6885683494732, "alt_km": 19072.684333164172, "timestamp": "2025-12-24T05:51:19.851229+00:00", "meta": {"OBJECT_NAME": "COSMOS 2476 (744)", "OBJECT_ID": "2011-064A", "EPOCH": "2025-12-23T12:51:54.046080", "MEAN_MOTION": 2.13103692, "ECCENTRICITY": 0.00245495, "INCLINATION": 65.1675, "RA_OF_ASC_NODE": 78.8064, "ARG_OF_PERICENTER": 235.5256, "MEAN_ANOMALY": 174.828, "EPHEMERIS_TYPE": 0, "CLASSIFICATION_TYPE": "U", "NORAD_CAT_ID": 37867, "ELEMENT_SET_NO": 999, "REV_AT_EPOCH": 11002, "BSTAR": 0, "MEAN_MOTION_DOT": 1e-08, "MEAN_MOTION_DDOT": 0}, "tle": {"line1": "1 37867U 11064A   25357.53604220  .00000001  00000+0  00000+0 0  9996", "line2": "2 37867  65.1675  78.8064 0024549 235.5256 174.8280  2.13103692110029"}}, "geometry": {"type": "Point", "coordinates": [-71.6885683494732, -46.81944005020923]}}, {"type": "Feature", "properties": {"norad_id": 37868, "name": "COSMOS 2477 (745)", "group": "gnss", "lat": 47.510853826107216, "lon": 109.17606148366626, "alt_km": 19179.380988529392, "timestamp": "2025-12-24T05:51:19.851242+00:00", "meta": {"OBJECT_NAME": "COSMOS 2477 (745)", "OBJECT_ID": "2011-064B", "EPOCH": "2025-12-23T05:19:57.056160", "MEAN_MOTION": 2.13103036, "ECCENTRICITY": 0.00215459, "INCLINATION": 65.1742, "RA_OF_ASC_NODE": 78.8944, "ARG_OF_PERICENTER": 235.4149, "MEAN_ANOMALY": 115.0574, "EPHEMERIS_TYPE": 0, "CLASSIFICATION_TYPE": "U", "NORAD_CAT_ID": 37868, "ELEMENT_SET_NO": 999, "REV_AT_EPOCH": 11000, "BSTAR": 0, "MEAN_MOTION_DOT": 0, "MEAN_MOTION_DDOT": 0}, "tle": {"line1": "1 37868U 11064B   25357.22218815  .00000000  00000+0  00000+0 0  9993", "line2": "2 37868  65.1742  78.8944 0021545 235.4149 115.0574  2.13103036110008"}}, "geometry": {"type": "Point", "coordinates": [109.17606148366626, 47.510853826107216]}}, {"type": "Feature", "properties": {"norad_id": 37869, "name": "COSMOS 2475 (743)", "group": "gnss", "lat": 9.487324425590794, "lon": 83.32190652904977, "alt_km": 19164.59823802257, "timestamp": "2025-12-24T05:51:19.851254+00:00", "meta": {"OBJECT_NAME": "COSMOS 2475 (743)", "OBJECT_ID": "2011-064C", "EPOCH": "2025-12-23T10:47:00.283776", "MEAN_MOTION": 2.13101666, "ECCENTRICITY": 0.00267392, "INCLINATION": 65.1811, "RA_OF_ASC_NODE": 78.907, "ARG_OF_PERICENTER": 249.1906, "MEAN_ANOMALY": 231.4149, "EPHEMERIS_TYPE": 0, "CLASSIFICATION_TYPE": "U", "NORAD_CAT_ID": 37869, "ELEMENT_SET_NO": 999, "REV_AT_EPOCH": 11002, "BSTAR": 0, "MEAN_MOTION_DOT": 1e-08, "MEAN_MOTION_DDOT": 0}, "tle": {"line1": "1 37869U 11064C   25357.44930884  .00000001  00000+0  00000+0 0  9996", "line2": "2 37869  65.1811  78.9070 0026739 249.1906 231.4149  2.13101666110020"}}, "geometry": {"type": "Point", "coordinates": [83.32190652904977, 9.487324425590794]}}, {"type": "Feature", "properties": {"norad_id": 37948, "name": "BEIDOU-2 IGSO-5 (C10)", "group": "gnss", "lat": 1.1212156894475858, "lon": -85.27302576000504, "alt_km": 36131.11590475503, "timestamp": "2025-12-24T05:51:19.851266+00:00", "meta": {"OBJECT_NAME": "BEIDOU-2 IGSO-5 (C10)", "OBJECT_ID": "2011-073A", "EPOCH": "2025-12-23T15:38:27.014784", "MEAN_MOTION": 1.00288757, "ECCENTRICITY": 0.01097443, "INCLINATION": 47.9999, "RA_OF_ASC_NODE": 273.7252, "ARG_OF_PERICENTER": 222.2004, "MEAN_ANOMALY": 284.7176, "EPHEMERIS_TYPE": 0, "CLASSIFICATION_TYPE": "U", "NORAD_CAT_ID": 37948, "ELEMENT_SET_NO": 999, "REV_AT_EPOCH": 5137, "BSTAR": 0, "MEAN_MOTION_DOT": -1.38e-06, "MEAN_MOTION_DDOT": 0}, "tle": {"line1": "1 37948U 11073A   25357.65170156 -.00000138  00000+0  00000+0 0  9997", "line2": "2 37948  47.9999 273.7252 0109744 222.2004 284.7176  1.00288757 51374"}}, "geometry": {"type": "Point", "coordinates": [-85.27302576000504, 1.1212156894475858]}}, {"type": "Feature", "properties": {"norad_id": 37951, "name": "LUCH 5A (SDCM/PRN 140)", "group": "gnss", "lat": -8.319185045634367, "lon": -12.039364794713366, "alt_km": 35784.08962991983, "timestamp": "2025-12-24T05:51:19.851281+00:00", "meta": {"OBJECT_NAME": "LUCH 5A (SDCM/PRN 140)", "OBJECT_ID": "2011-074B", "EPOCH": "2025-12-23T22:29:13.184160", "MEAN_MOTION": 1.0026901, "ECCENTRICITY": 0.0005212, "INCLINATION": 8.3065, "RA_OF_ASC_NODE": 76.4197, "ARG_OF_PERICENTER": 191.4853, "MEAN_ANOMALY": 329.1523, "EPHEMERIS_TYPE": 0, "CLASSIFICATION_TYPE": "U", "NORAD_CAT_ID": 37951, "ELEMENT_SET_NO": 999, "REV_AT_EPOCH": 5129, "BSTAR": 0, "MEAN_MOTION_DOT": -3.2e-07, "MEAN_MOTION_DDOT": 0}, "tle": {"line1": "1 37951U 11074B   25357.93695815 -.00000032  00000+0  00000+0 0  9990", "line2": "2 37951   8.3065  76.4197 0005212 191.4853 329.1523  1.00269010 51295"}}, "geometry": {"type": "Point", "coordinates": [-12.039364794713366, -8.319185045634367]}}, {"type": "Feature", "properties": {"norad_id": 38091, "name": "BEIDOU-2 G5 (C05)", "group": "gnss", "lat": 0.595080758792136, "lon": -120.5264945391153, "alt_km": 35761.541175049795, "timestamp": "2025-12-24T05:51:19.851293+00:00", "meta": {"OBJECT_NAME": "BEIDOU-2 G5 (C05)", "OBJECT_ID": "2012-008A", "EPOCH": "2025-12-23T21:58:16.146624", "MEAN_MOTION": 1.00269678, "ECCENTRICITY": 0.00130707, "INCLINATION": 3.1353, "RA_OF_ASC_NODE": 70.6685, "ARG_OF_PERICENTER": 232.13, "MEAN_ANOMALY": 178.2088, "EPHEMERIS_TYPE": 0, "CLASSIFICATION_TYPE": "U", "NORAD_CAT_ID": 38091, "ELEMENT_SET_NO": 999, "REV_AT_EPOCH": 5061, "BSTAR": 0, "MEAN_MOTION_DOT": 7.7e-07, "MEAN_MOTION_DDOT": 0}, "tle": {"line1": "1 38091U 12008A   25357.91546466  .00000077  00000+0  00000+0 0  9997", "line2": "2 38091   3.1353  70.6685 0013070 232.1300 178.2088  1.00269678 50617"}}, "geometry": {"type": "Point", "coordinates": [-120.5264945391153, 0.595080758792136]}}, {"type": "Feature", "properties": {"norad_id": 38250, "name": "BEIDOU-2 M3 (C11)", "group": "gnss", "lat": 50.81453618218519, "lon": 6.844959532881044, "alt_km": 21582.540040710628, "timestamp": "2025-12-24T05:51:19.851305+00:00", "meta": {"OBJECT_NAME": "BEIDOU-2 M3 (C11)", "OBJECT_ID": "2012-018A", "EPOCH": "2025-12-23T14:28:50.284992", "MEAN_MOTION": 1.86230163, "ECCENTRICITY": 0.00241022, "INCLINATION": 55.911, "RA_OF_ASC_NODE": 310.7927, "ARG_OF_PERICENTER": 275.3746, "MEAN_ANOMALY": 84.3517, "EPHEMERIS_TYPE": 0, "CLASSIFICATION_TYPE": "U", "NORAD_CAT_ID": 38250, "ELEMENT_SET_NO": 999, "REV_AT_EPOCH": 9267, "BSTAR": 0, "MEAN_MOTION_DOT": -5.4e-07, "MEAN_MOTION_DDOT": 0}, "tle": {"line1": "1 38250U 12018A   25357.60335978 -.00000054  00000+0  00000+0 0  9991", "line2": "2 38250  55.9110 310.7927 0024102 275.3746  84.3517  1.86230163 92675"}}, "geometry": {"type": "Point", "coordinates": [6.844959532881044, 50.81453618218519]}}, {"type": "Feature", "properties": {"norad_id": 38251, "name": "BEIDOU-2 M4 (C12)", "group": "gnss", "lat": 48.64572288867429, "lon": 79.49458884454434, "alt_km": 21563.434804634777, "timestamp": "2025-12-24T05:51:19.851316+00:00", "meta": {"OBJECT_NAME": "BEIDOU-2 M4 (C12)", "OBJECT_ID": "2012-018B", "EPOCH": "2025-12-21T22:11:20.549760", "MEAN_MOTION": 1.86229896, "ECCENTRICITY": 0.00152556, "INCLINATION": 55.8135, "RA_OF_ASC_NODE": 310.0771, "ARG_OF_PERICENTER": 279.1681, "MEAN_ANOMALY": 80.6551, "EPHEMERIS_TYPE": 0, "CLASSIFICATION_TYPE": "U", "NORAD_CAT_ID": 38251, "ELEMENT_SET_NO": 999, "REV_AT_EPOCH": 9264, "BSTAR": 0, "MEAN_MOTION_DOT": -6e-07, "MEAN_MOTION_DDOT": 0}, "tle": {"line1": "1 38251U 12018B   25355.92454340 -.00000060  00000+0  00000+0 0  9997", "line2": "2 38251  55.8135 310.0771 0015255 279.1681  80.6551  1.86229896 92646"}}, "geometry": {"type": "Point", "coordinates": [79.49458884454434, 48.64572288867429]}}, {"type": "Feature", "properties": {"norad_id": 38652, "name": "SES-5 (EGNOS/PRN 136)", "group": "gnss", "lat": -0.0500341836263155, "lon": -174.18533310687604, "alt_km": 35785.20002732072, "timestamp": "2025-12-24T05:51:19.851328+00:00", "meta": {"OBJECT_NAME": "SES-5 (EGNOS/PRN 136)", "OBJECT_ID": "2012-036A", "EPOCH": "2025-12-23T21:42:55.116576", "MEAN_MOTION": 1.00271684, "ECCENTRICITY": 0.00018911, "INCLINATION": 0.0602, "RA_OF_ASC_NODE": 303.5923, "ARG_OF_PERICENTER": 325.7431, "MEAN_ANOMALY": 154.0702, "EPHEMERIS_TYPE": 0, "CLASSIFICATION_TYPE": "U", "NORAD_CAT_ID": 38652, "ELEMENT_SET_NO": 999, "REV_AT_EPOCH": 4270, "BSTAR": 0, "MEAN_MOTION_DOT": 5.5e-07, "MEAN_MOTION_DDOT": 0}, "tle": {"line1": "1 38652U 12036A   25357.90480459  .00000055  00000+0  00000+0 0  9995", "line2": "2 38652   0.0602 303.5923 0001891 325.7431 154.0702  1.00271684 42704"}}, "geometry": {"type": "Point", "coordinates": [-174.18533310687604, -0.0500341836263155]}}, {"type": "Feature", "properties": {"norad_id": 38775, "name": "BEIDOU-2 M6 (C14)", "group": "gnss", "lat": -40.481600335940676, "lon": 34.16494662518089, "alt_km": 21506.58521654119, "timestamp": "2025-12-24T05:51:19.851339+00:00", "meta": {"OBJECT_NAME": "BEIDOU-2 M6 (C14)", "OBJECT_ID": "2012-050B", "EPOCH": "2025-12-23T05:54:39.234816", "MEAN_MOTION": 1.86230862, "ECCENTRICITY": 0.00114449, "INCLINATION": 56.3871, "RA_OF_ASC_NODE": 68.7189, "ARG_OF_PERICENTER": 343.1863, "MEAN_ANOMALY": 16.829, "EPHEMERIS_TYPE": 0, "CLASSIFICATION_TYPE": "U", "NORAD_CAT_ID": 38775, "ELEMENT_SET_NO": 999, "REV_AT_EPOCH": 9003, "BSTAR": 0, "MEAN_MOTION_DOT": -2.5e-07, "MEAN_MOTION_DDOT": 0}, "tle": {"line1": "1 38775U 12050B   25357.24628744 -.00000025  00000+0  00000+0 0  9993", "line2": "2 38775  56.3871  68.7189 0011444 343.1863  16.8290  1.86230862 90037"}}, "geometry": {"type": "Point", "coordinates": [34.16494662518089, -40.481600335940676]}}]}